DATA_TYPE BULLETIN IMS1.0:short
ISC Bulletin
Event   904745 Nepal-India border region

   Date       Time        Err   RMS Latitude Longitude  Smaj  Smin  Az Depth   Err Ndef Nsta Gap  mdist  Mdist Qual   Author      OrigID
1934/01/15 08:43:18                  26.5000   86.5000                  35.0                                       uk GUTE       1949348
 (Dunn et al.(1939), Nasu (1935))
1934/01/15 08:43:25                  26.6000   86.8000                                                             uk ISS        1949349
 (Geological Survey of India, Vol.LXVIII, part 2, pp 177-239, 1934, gives preliminary account.)
1934/01/15 08:43:25.39               26.7730   86.7620                  35.0                                          CENT      02319468
1934/01/15 08:43:30                  26.0000   85.5000                                                             uk CGS        1949350
1934/01/15 08:43:25.58   0.31 4.105  26.8847   86.5885 7.182 4.958  25  15.0f       252  206  46  14.97 154.38 m i ke ISC       05952093
 (#PRIME)

Magnitude  Err Nsta Author      OrigID
MS     8.3          PAS        1949348
mB     7.8          ABE1      02319468
Ms     8.1          P&S       02319468
Ms     8.3          ABE1      02319468
Mw     8.0          P&S       02319468
UK     8.4          B&D       02319468
MS     8.2 0.2    7 ISC       05952093

Sta     Dist  EvAz Phase        Time      TRes  Azim AzRes   Slow   SRes Def   SNR       Amp   Per Qual Magnitude    ArrID
CAL     4.61 159.5 Pn       08:44:18.0   -16.7                           ___                        __            61726946
AGR     7.65 273.8 Pn       08:45:10.0    -6.5                           ___                        __            61726947
AGR     7.65 273.8 Pb       08:46:10.0    32.0                           ___                        __            61726948
DDI     8.24 296.5 Pn       08:45:10.0   -14.8                           ___                        __            61726949
BOM    14.97 240.8 Pn       08:46:46.0   -10.7                           ___                        __            61726950
BOM    14.97 240.8 Sn       08:49:38.0    -4.3                           T__                        __            61726951
AAA    18.13 336.9 P        08:47:40.0     2.8                           T__                        __            61726952
AAA    18.13 336.9 Sn       08:50:36.0   -23.0                           ___                        __            61726953
FRU    18.67 331.5 P        08:47:43.0    -0.0                           T__                        __            61726958
FRU    18.67 331.5 Sn       08:51:07.0    -4.9                           T__                        __            61726959
KOD    18.67 209.2 P        08:47:36.0    -7.5                           T__                        __            61726954
KOD    18.67 209.2 S        08:51:32.0    15.8                           ___                        __            61726955
PLV    19.29 104.0 P        08:47:47      -3.0                           T__                        _i              210226
PLV    19.29 104.0 m1       08:49:48                                     ___        127000.0  6.00  __              210227
PLV    19.29 104.0 Sn       08:51:29       1.7                           T__                        _i              210228
PLV    19.29 104.0 P        08:47:47.0    -3.0                           T__                        __            61726956
PLV    19.29 104.0 Sn       08:51:29.0     1.7                           T__                        __            61726957
TAS    20.26 319.7 P        08:47:55.0    -5.4                           T__                        __            61726960
CHM    20.74 322.3 Pn       08:48:16.0     8.0                           ___                        __            61726963
COC    20.88 199.0 P        08:48:05.0    -2.3                           T__                        __            61726961
COC    20.88 199.0 S        08:52:00.0     0.2                           T__                        __            61726962
HKC    25.47  94.3 P        08:48:45.0    -8.2                           T__                        __            61726964
HKC    25.47  94.3 S        08:53:16.0    -4.0                           T__                        __            61726965
MED    25.93 151.4 P        08:49:02.0     4.6                           T__                        __            61726966
PEK    27.81  54.3 P        08:49:11.0    -3.2                           T__                        d_            61726967
PEK    27.81  54.3 S        08:53:58.0     1.4                           T__                        __            61726968
NAN    28.44  71.8 P        08:49:15.0    -4.8                           T__                        __            61726969
NAN    28.44  71.8 S        08:54:01.0    -5.6                           T__                        __            61726970
TAI    30.67  89.8 P        08:49:49.0     9.3                           ___                        __            61726971
TAI    30.67  89.8 S        08:55:37.0    55.2                           ___                        __            61726972
ZKW    30.69  73.6 S        08:55:40      58.0                           ___                        __               93932
ZKW    30.69  73.6 W3       12:25:40                                     ___                        __               93935
ZKW    30.69  73.6 P        08:49:36.0    -3.8                           T__                        __            61726973
ZKW    30.69  73.6 S        08:55:40.0    58.0                           ___                        __            61726974
TCU    30.83  87.4 P        08:50:14.0    32.9                           ___                        __            61726975
TCU    30.83  87.4 S        08:55:07.0    22.6                           ___                        __            61726976
KAU    30.87  90.6 P        08:49:56.0    14.5                           ___                        __            61726977
KAU    30.87  90.6 S        08:55:36.0    50.9                           ___                        __            61726978
ALS    31.09  88.6 P        08:49:53.0     9.2                           ___                        __            61726979
ALS    31.09  88.6 S        08:55:12.0    22.9                           ___                        __            61726980
TAP    31.39  85.4 P        08:49:48.0     1.9                           T__                        __            61726983
TAP    31.39  85.4 S        08:55:01.0     7.9                           T__                        __            61726984
HEN    31.41  91.4 P        08:48:59.0   -47.2                           ___                        __            61726981
HEN    31.41  91.4 S        08:54:55.0     1.6                           T__                        __            61726982
TTN    31.58  89.8 P        08:49:54.0     6.3                           T__                        __            61726985
TTN    31.58  89.8 S        08:55:15.0    18.9                           ___                        __            61726986
DAI    31.59  58.8 P        08:49:43.0    -4.6                           T__                        __            61726989
DAI    31.59  58.8 S        08:54:58.0     2.1                           T__                        __            61726990
HWA    31.70  87.4 P        08:50:00.0    11.2                           ___                        __            61726987
HWA    31.70  87.4 S        08:55:15.0    17.1                           ___                        __            61726988
BAK    33.20 303.4 P        08:50:04.0     2.3                           T__                        __            61726991
ISI    33.90  85.8 P        08:50:10.0     1.9                           T__                        __            61726992
ISI    33.90  85.8 S        08:55:53.0    20.8                           ___                        __            61726993
MAN    34.35 103.8 P        08:50:08.0    -4.0                           T__                        c_            61726994
MAN    34.35 103.8 S        08:55:33.0    -6.3                           T__                        __            61726995
PYO    34.77  59.6 P        08:50:23.0     7.6                           ___                        __            61726996
PYO    34.77  59.6 S        08:55:47.0     1.7                           T__                        __            61726997
SVE    35.19 335.3 P        08:50:17.0    -1.9                           T__                        __            61727002
SVE    35.19 335.3 S        08:55:55.0     3.5                           T__                        __            61727003
INC    35.27  62.4 P        08:50:14.0    -5.8                           ___                        c_            61726998
INC    35.27  62.4 S        08:55:44.0    -9.1                           ___                        __            61726999
SEO    35.54  62.3 P        08:50:17.0    -5.1                           T__                        __            61727000
SEO    35.54  62.3 S        08:55:57.0    -0.3                           T__                        __            61727001
TAE    36.74  65.3 P        08:50:29.0    -3.4                           T__                        __            61727005
TAE    36.74  65.3 S        08:56:17.0     1.4                           T__                        __            61727006
GRO    36.81 307.2 P        08:50:33.0     0.1                           T__                        __            61727007
SLS    36.81 147.9 P        08:50:06.0   -27.2                           ___                        __            61727004
TIF    37.18 304.4 P        08:50:31.0    -5.1                           T__                        __            61727008
TIF    37.18 304.4 S        08:56:25.0     2.7                           T__                        __            61727009
ERE    37.19 301.8 P        08:50:40.0     3.7                           T__                        __            61727010
ERE    37.19 301.8 S        08:56:14.0    -8.6                           T__                        __            61727011
NGS    37.81  70.5 P        08:50:36.0    -5.5                           T__                        c_            61727012
NGS    37.81  70.5 S        08:56:34.0     2.0                           T__                        __            61727013
FKK    38.20  69.1 P        08:50:40.0    -4.8                           T__                        __            61727014
FKK    38.20  69.1 S        08:56:44.0     6.1                           T__                        __            61727015
FKK    38.20  69.1 P        08:50:40.0    -4.8                           T__                        __            61727016
FKK    38.20  69.1 S        08:56:40.0     2.1                           T__                        __            61727017
DJA    38.28 146.3 P        08:50:47.0     1.5                           T__                        d_            61727018
KAG    38.46  72.3 P        08:50:56.0     9.0                           ___                        __            61727021
KAG    38.46  72.3 S        08:56:46.0     4.2                           T__                        __            61727022
KUM    38.51  70.3 P        08:50:43.0    -4.4                           T__                        __            61727019
KUM    38.51  70.3 S        08:56:44.0     1.4                           T__                        __            61727020
MYZ    39.17  71.7 P        08:50:47.0    -6.0                           ___                        __            61727023
MYZ    39.17  71.7 S        08:56:35.0   -17.6                           ___                        __            61727024
MLB    39.55 146.0 P        08:51:06.0     9.5                           ___                        __            61727025
MLB    39.55 146.0 S        08:57:01.0     2.1                           T__                        __            61727026
HMD    39.57  67.0 P        08:50:51.0    -5.2                           T__                        __            61727027
HMD    39.57  67.0 S        08:56:58.0    -0.5                           T__                        __            61727028
HIR    39.88  67.8 P        08:50:59.0     0.1                           T__                        __            61727029
HIR    39.88  67.8 S        08:57:09.0     5.8                           T__                        __            61727030
VLA    39.98  54.1 P        08:50:53.0    -6.5                           ___                        __            61727031
VLA    39.98  54.1 S        08:56:49.0   -15.4                           ___                        __            61727032
SHM    40.40  70.2 P        08:50:56.0    -7.2                           ___                        __            61727033
SHM    40.40  70.2 S        08:56:59.0   -12.0                           ___                        __            61727034
KOC    40.84  68.9 P        08:51:03.0    -3.8                           T__                        __            61727035
KOC    40.84  68.9 S        08:57:19.0     1.5                           T__                        __            61727036
SOC    41.18 306.3 P        08:51:26.0    16.5                           ___                        __            61727039
SOC    41.18 306.3 S        08:57:40.0    17.7                           ___                        __            61727040
MRT    41.39  69.3 P        08:51:07.0    -4.4                           T__                        __            61727037
MRT    41.39  69.3 S        08:57:27.0     1.2                           T__                        __            61727038
TYK    41.80  65.9 P        08:51:18.0     3.3                           T__                        __            61727041
TYK    41.80  65.9 S        08:57:29.0    -2.8                           T__                        __            61727042
SUM    41.93  67.7 P        08:51:11.0    -4.7                           T__                        c_            61727043
SUM    41.93  67.7 S        08:57:26.0    -7.7                           T__                        __            61727044
KOB    42.13  67.1 P        08:51:13.0    -4.4                           T__                        c_            61727047
KOB    42.13  67.1 S        08:57:39.0     2.3                           T__                        __            61727048
WKY    42.15  67.8 P        08:51:12.0    -5.5                           ___                        __            61727045
WKY    42.15  67.8 S        08:57:34.0    -2.9                           T__                        __            61727046
OSA    42.41  67.1 P        08:51:15.0    -4.7                           T__                        __            61727049
OSA    42.41  67.1 S        08:57:43.0     2.2                           T__                        __            61727050
KYO    42.57  66.6 P        08:51:17.0    -4.0                           T__                        __            61727051
KYO    42.57  66.6 S        08:57:39.0    -4.1                           T__                        __            61727052
YAG    42.65  67.3 P        08:51:18.0    -3.6                           T__                        __            61727053
YAG    42.65  67.3 S        08:57:40.0    -4.3                           T__                        __            61727054
SHJ    42.70  68.9 P        08:51:17.0    -5.0                           T__                        __            61727055
SHJ    42.70  68.9 S        08:57:47.0     1.9                           T__                        __            61727056
HIK    42.98  66.2 P        08:51:21.0    -3.2                           T__                        __            61727057
HIK    42.98  66.2 S        08:57:44.0    -5.1                           T__                        __            61727058
KAM    43.18  66.8 P        08:51:22.0    -3.9                           T__                        __            61727059
KAM    43.18  66.8 S        08:57:50.0    -2.1                           T__                        __            61727060
GIF    43.39  66.0 P        08:51:22.0    -5.6                           ___                        __            61727063
GIF    43.39  66.0 S        08:57:51.0    -4.2                           T__                        __            61727064
WAJ    43.42  63.1 P        08:51:22.0    -5.8                           ___                        __            61727061
WAJ    43.42  63.1 S        08:57:47.0    -8.6                           T__                        __            61727062
NAG    43.57  66.3 P        08:51:24.0    -5.1                           T__                        __            61727065
NAG    43.57  66.3 S        08:58:01.0     3.2                           T__                        __            61727066
KSA    43.93 291.8 P        08:51:33.0     0.9                           T__                        __            61727069
KSA    43.93 291.8 S        08:58:03.0    -0.4                           T__                        __            61727070
HMM    44.22  66.9 P        08:51:31.0    -3.3                           T__                        __            61727067
HMM    44.22  66.9 S        08:58:12.0     4.7                           T__                        __            61727068
NGN    44.49  64.1 P        08:51:33.0    -3.4                           T__                        __            61727071
NGN    44.49  64.1 S        08:58:18.0     6.8                           T__                        __            61727072
OIW    44.79  64.5 P        08:51:34.0    -5.0                           T__                        __            61727073
OIW    44.79  64.5 S        08:58:10.0    -5.8                           T__                        __            61727074
FUN    45.01  65.7 P        08:51:29.0   -11.7                           ___                        __            61727075
FUN    45.01  65.7 S        08:58:12.0    -7.0                           T__                        __            61727076
MAE    45.20  64.4 P        08:51:42.0    -0.1                           T__                        __            61727079
MAE    45.20  64.4 S        08:58:18.0    -3.5                           T__                        __            61727080
SUS    45.26  66.8 P        08:51:48.0     5.4                           T__                        __            61727077
SUS    45.26  66.8 S        08:57:25.0   -57.4                           ___                        __            61727078
YAL    45.26 307.0 P        08:51:43.0     0.6                           T__                        __            61727083
YAL    45.26 307.0 S        08:57:25.0   -57.2                           ___                        __            61727084
SIM    45.33 307.6 P        08:51:40.0    -3.0                           T__                        __            61727085
SIM    45.33 307.6 S        08:58:22.0    -1.2                           T__                        __            61727086
KMG    45.47  64.7 P        08:51:43.0    -1.2                           T__                        __            61727081
KMG    45.47  64.7 S        08:57:25.0   -60.4                           ___                        __            61727082
SEV    45.62 307.0 P        08:51:45.0    -0.2                           T__                        __            61727097
SEV    45.62 307.0 S        08:58:28.0     0.8                           T__                        __            61727098
TOK    45.81  65.3 P        08:51:48.0     1.1                           T__                        __            61727089
TOK    45.81  65.3 S        08:58:33.0     2.8                           T__                        __            61727090
