DATA_TYPE BULLETIN IMS1.0:short
ISC Bulletin
Event   895681 Eastern Xizang-India border region

   Date       Time        Err   RMS Latitude Longitude  Smaj  Smin  Az Depth   Err Ndef Nsta Gap  mdist  Mdist Qual   Author      OrigID
1950/08/15 14:09:30                  28.5000   96.5000                  35.0                                       uk GUTE       1935171
 (Kingdon-Ward(1951,1952), Tillitson(1951), Malurkar(1951))
1950/08/15 14:09:30                  28.6000   96.5000                                                             uk BCIS       1935172
 (Felt I=- MM)
1950/08/15 14:09:30                  28.5000   97.0000                                                             uk CGS        1935173
1950/08/15 14:09:30                  28.7000   96.6000                                                             uk ISS        1935174
1950/08/15 14:09:30                  28.5000   97.0000                                                             uk PDE        1935175
1950/08/15 14:09:32                  28.8000   96.6000                                                             uk POO        1935176
1950/08/15 14:09:33                  28.2000   97.2000                                                             uk JSA        1935177
1950/08/15 14:09:36.11               28.2900   96.6570                  35.0                                          CENT      02320200
1950/08/15 14:09:34.65   0.27 3.708  28.3633   96.4454 6.900 5.079   9  15.0f       386  239  57   9.35 167.31 m i ke ISC       05953232
 (#PRIME)
 (Depth fixed to depth of a reported hypocentre)


Magnitude  Err Nsta Author      OrigID
MS     8.6          PAS        1935171
       8.6          PAS        1935172
mB     8.0          ABE1      02320200
Ms     8.6          ABE1      02320200
Mw     8.6          P&S       02320200
UK     8.6          GUTE      02320200
MS     8.6 0.3    4 ISC       05953232

Sta     Dist  EvAz Phase        Time      TRes  Azim AzRes   Slow   SRes Def   SNR       Amp   Per Qual Magnitude    ArrID
CAL     9.35 233.5 Pn       14:11:50.0     1.1                           T__                        _i            10526705
DDI    16.16 281.4 P        14:16:06.0   161.5                           ___                        _e            10526706
DDI    16.16 281.4 S        14:18:48.0   134.5                           ___                        _e            10526707
NDI    16.91 275.7 Pn       14:13:27.0    -3.8                           T__                        ci            10526708
NDI    16.91 275.7 Sn       14:16:27.0   -11.4                           ___                        _i            10526709
NAN    19.65  73.7 P        14:13:58.0    -4.9                           T__                        ci            10526710
NAN    19.65  73.7 S        14:17:40.0    -4.1                           T__                        _i            10526711
HYD    19.80 240.5 P        14:14:05.0     0.3                           T__                        _i            10526712
PRZ    20.31 318.7 Pn       14:14:18.0     5.7                           ___                        _i            10526713
NRN    21.18 313.4 P        14:14:20.0     0.2                           T__                        _i            10526714
AAA    21.63 318.6 P        14:14:25.0     0.6                           T__                        _i            10526715
ZKW    21.86  76.5 P        14:14:30.0     3.2                           T__                        __            10526716
ZKW    21.86  76.5 S        14:18:28.0    -0.0                           T__                        __            10526717
FRU    22.79 315.1 P        14:14:38.0     1.3                           T__                        _i            10526718
POO    22.89 249.6 P        14:14:36.0    -2.0                           T__                        ci            10526719
POO    22.89 249.6 S        14:18:48.0     0.6                           T__                        _i            10526720
PUNE   22.89 249.6 P        14:14:36      -2.0                           T__                        _i              409733
PUNE   22.89 249.6 P        14:14:36      -2.0                           T__                        _i              409734
PUNE   22.89 249.6 S        14:18:48       0.6                           T__                        _i              409735
PUNE   22.89 249.6 M        14:46:00                                     ___        952000.0 18.00  __ MS     7.3   409736
ANR    23.29 308.4 P        14:14:43.0     1.1                           T__                        _i            10526721
FRG    23.54 307.1 P        14:14:44.0    -0.4                           T__                        _i            10526722
BOM    23.58 251.6 P        14:14:45.0     0.2                           T__                        _i            10526723
OBG    24.48 301.9 P        14:14:49.0    -4.3                           T__                        __            10526724
IRK    24.56  11.6 P        14:14:54.0     0.2                           T__                        _i            10526725
IRK    24.56  11.6 S        14:19:17.0     3.1                           T__                        _i            10526726
DSH    25.14 301.0 P        14:15:00.0     0.8                           T__                        _i            10526729
DSH    25.14 301.0 S        14:19:15.0    -8.7                           T__                        _i            10526730
SEM    25.22 335.2 P        14:15:01.0     1.3                           T__                        _i            10526727
SEM    25.22 335.2 S        14:19:26.0     1.5                           T__                        _i            10526728
KOD    25.35 228.4 P        14:15:03.0     1.4                           T__                        _i            10526733
KOD    25.35 228.4 S        14:19:33.0     5.3                           T__                        _i            10526734
TAS    25.64 307.4 P        14:15:04.0     0.3                           T__                        _i            10526731
TAS    25.64 307.4 S        14:19:34.0     2.5                           T__                        _i            10526732
COC    26.49 219.4 P        14:15:12.0     0.5                           T__                        _i            10526736
COC    26.49 219.4 S        14:19:30.0   -15.2                           ___                        __            10526737
SAM    26.78 302.6 P        14:15:17.0     2.9                           T__                        _i            10526735
NGS    29.04  73.0 P        14:15:27.0    -7.3                           ___                        di            10526738
NGS    29.04  73.0 PnPn     14:16:33.0     6.6                           T__                        _e            10526740
NGS    29.04  73.0 S        14:20:26.0     0.8                           T__                        _i            10526739
UNZ    29.38  73.0 P        14:15:26.0   -11.3                           ___                        __            10526741
UNZ    29.38  73.0 S        14:20:32.0     1.4                           T__                        _e            10526742
FKK    29.48  71.3 P        14:15:36.0    -2.1                           T__                        _i            10526743
FKK    29.48  71.3 S        14:20:40.0     8.0                           T__                        __            10526744
FKK    29.48  71.3 SnSn     14:22:03.0     3.6                           T__                        __            10526745
YKS    29.68  77.6 P        14:15:34.0    -5.9                           T__                        __            10526748
YKS    29.68  77.6 PnPn     14:16:30.0    -5.0                           T__                        __            10526750
YKS    29.68  77.6 S        14:21:04.0    28.8                           ___                        __            10526749
KUM    29.75  72.8 P        14:15:37.0    -3.6                           T__                        ci            10526746
KUM    29.75  72.8 S        14:20:32.0    -4.3                           T__                        __            10526747
MRY    30.29 296.7 P        14:15:46.0     0.7                           T__                        _e            10526757
MYZ    30.38  74.6 P        14:15:43.0    -3.1                           T__                        _i            10526751
MYZ    30.38  74.6 PnPn     14:16:36.0    -8.4                           T__                        _i            10526753
MYZ    30.38  74.6 S        14:20:55.0     8.8                           T__                        __            10526752
OIT    30.51  72.0 P        14:15:47.0    -0.3                           T__                        _i            10526754
OIT    30.51  72.0 PnPn     14:16:43.0    -3.2                           T__                        _e            10526756
OIT    30.51  72.0 S        14:20:58.0     9.7                           T__                        _e            10526755
HIR    31.20  69.8 P        14:15:50.0    -3.3                           T__                        _e            10526758
HIR    31.20  69.8 S        14:21:22.0    23.0                           ___                        _e            10526759
MTY    31.48  70.8 P        14:15:52.0    -3.8                           T__                        _e            10526760
MTY    31.48  70.8 PcP      14:18:30.0   -18.8                           ___                        _i            10526762
MTY    31.48  70.8 S        14:21:28.0    24.6                           ___                        _e            10526761
SHM    31.64  72.8 P        14:15:56.0    -1.3                           T__                        __            10526763
SHM    31.64  72.8 PnPn     14:16:56.0    -5.0                           T__                        __            10526765
SHM    31.64  72.8 S        14:21:46.0    40.0                           ___                        __            10526764
VLA    32.05  53.1 P        14:15:57.0    -3.8                           T__                        _i            10526766
KOC    32.11  71.3 P        14:15:48.0   -13.4                           ___                        _i            10526767
KOC    32.11  71.3 PnPn     14:16:42.0   -25.0                           ___                        _i            10526769
KOC    32.11  71.3 S        14:20:59.0   -14.3                           ___                        _e            10526768
ASH    33.10 296.7 P        14:16:10.0    -0.0                           T__                        _i            10526773
SUM    33.24  69.9 P        14:16:09.0    -2.3                           T__                        _i            10526770
SUM    33.24  69.9 PnPn     14:17:04.0   -17.5                           ___                        _i            10526772
SUM    33.24  69.9 S        14:22:30.0    59.1                           ___                        _i            10526771
KOB    33.47  69.2 P        14:16:11.0    -2.2                           T__                        __            10526774
KOB    33.47  69.2 PnPn     14:17:10.0   -14.3                           ___                        _i            10526776
KOB    33.47  69.2 S        14:22:32.0    57.7                           ___                        _e            10526775
OSA    33.75  69.3 P        14:16:14.0    -1.7                           T__                        _i            10526777
OSA    33.75  69.3 PP       14:17:42.0     9.9                           T__                        _e            10526779
OSA    33.75  69.3 S        14:23:08.0    89.3                           ___                        _e            10526778
OWA    34.31  70.3 P        14:16:18.0    -2.6                           T__                        di            10526783
OWA    34.31  70.3 PnPn     14:17:20.0   -15.0                           ___                        __            10526785
OWA    34.31  70.3 S        14:22:46.0    58.5                           ___                        _i            10526784
HIK    34.34  68.2 P        14:15:20.0   -60.9                           ___                        _e            10526780
HIK    34.34  68.2 P        14:16:18.0    -2.9                           T__                        _e            10526782
HIK    34.34  68.2 S        14:20:55.0   -52.9                           ___                        _e            10526781
KAM    34.52  68.9 P        14:16:19.0    -3.4                           T__                        _i            10526786
KAM    34.52  68.9 PPP      14:18:39.0                                   ___                        __            10526788
KAM    34.52  68.9 S        14:21:44.0    -6.7                           T__                        _e            10526787
GIF    34.77  68.0 P        14:16:22.0    -2.5                           T__                        _i            10526789
GIF    34.77  68.0 PP       14:17:56.0    12.7                           ___                        _e            10526790
KAT    34.83 298.4 P        14:16:27.0     2.0                           T__                        _i            10526796
WAJ    34.93  64.5 P        14:16:23.0    -2.9                           T__                        __            10526794
WAJ    34.93  64.5 S        14:23:54.0   117.1                           ___                        _e            10526795
NAG    34.93  68.4 P        14:16:24.0    -2.0                           T__                        _i            10526791
NAG    34.93  68.4 PnPn     14:17:19.0   -23.7                           ___                        _e            10526793
NAG    34.93  68.4 S        14:22:01.0     4.0                           T__                        __            10526792
DJA    35.78 162.1 P        14:16:31.0    -2.3                           T__                        _i            10526808
DJA    35.78 162.1 S        14:22:14.0     3.8                           T__                        _e            10526809
NGN    35.94  65.8 P        14:16:33.0    -1.6                           T__                        _i            10526800
NGN    35.94  65.8 PnPn     14:17:31.0   -24.2                           ___                        _e            10526802
NGN    35.94  65.8 S        14:22:03.0    -9.5                           T__                        _e            10526801
MAT    35.95  66.0 P        14:16:32.0    -2.7                           T__                        __            10526797
MAT    35.95  66.0 PPP      14:18:29.0                                   ___                        __            10526799
MAT    35.95  66.0 S        14:22:14.0     1.4                           T__                        _i            10526798
AIK    36.02  63.5 P        14:16:30.0    -5.3                           T__                        _i            10526803
AIK    36.02  63.5 S        14:22:36.0    22.3                           ___                        _e            10526804
SHZ    36.12  68.7 P        14:16:33.0    -3.1                           T__                        _i            10526805
SHZ    36.12  68.7 PnPn     14:17:35.0   -22.4                           ___                        __            10526807
SHZ    36.12  68.7 S        14:22:57.0    41.8                           ___                        _e            10526806
FUN    36.40  67.8 P        14:16:36.0    -2.6                           T__                        _i            10526810
FUN    36.40  67.8 S        14:22:38.0    18.3                           ___                        __            10526811
MAE    36.64  66.3 P        14:16:37.0    -3.6                           T__                        _i            10526812
MAE    36.64  66.3 PP       14:18:09.0     5.0                           T__                        _e            10526814
MAE    36.64  66.3 S        14:23:09.0    45.9                           ___                        _e            10526813
BND    36.69 161.2 P        14:16:37.0    -4.2                           T__                        _e            10526823
BND    36.69 161.2 S        14:23:12.0    47.7                           ___                        _e            10526824
KMG    36.90  66.7 P        14:16:38.0    -4.8                           T__                        __            10526815
KMG    36.90  66.7 PcP      14:18:54.0   -10.2                           ___                        _e            10526817
KMG    36.90  66.7 S        14:23:30.0    62.9                           ___                        _e            10526816
OSH    36.92  69.0 P        14:16:41.0    -2.0                           T__                        _i            10526818
OSH    36.92  69.0 pP       14:17:04.0    16.3                           ___                        _e            10526820
OSH    36.92  69.0 S        14:23:38.0    70.5                           ___                        __            10526819
YOK    37.13  67.9 P        14:16:42.0    -2.7                           T__                        _i            10526821
YOK    37.13  67.9 pP       14:17:24.0    34.6                           ___                        _e            10526822
TOK    37.20  67.5 P        14:16:41.0    -4.4                           T__                        __            10526826
TOK    37.20  67.5 PnPn     14:18:14.0     3.4                           T__                        __            10526828
TOK    37.20  67.5 S        14:22:51.0    19.3                           ___                        __            10526827
TMS    37.28  68.7 P        14:16:42.0    -4.1                           T__                        __            10526825
UTS    37.29  66.0 P        14:16:41.0    -5.1                           T__                        _i            10526829
UTS    37.29  66.0 PnPn     14:18:14.0     2.3                           T__                        __            10526831
UTS    37.29  66.0 S        14:23:40.0    67.0                           ___                        _e            10526830
MTJ    37.48  66.6 P        14:16:44.0    -3.8                           T__                        _i            10526832
MTJ    37.48  66.6 PcP      14:19:05.0    -1.0                           T__                        __            10526834
MTJ    37.48  66.6 S        14:23:06.0    29.9                           ___                        __            10526833
AKI    37.57  60.8 P        14:16:43.0    -5.5                           T__                        ci            10526835
AKI    37.57  60.8 PS       14:25:23.0                                   ___                        _e            10526836
MIT    37.77  66.3 P        14:16:46.0    -4.2                           T__                        _i            10526839
MIT    37.77  66.3 PPP      14:18:35.0                                   ___                        __            10526841
MIT    37.77  66.3 S        14:22:32.0    -8.4                           T__                        __            10526840
FKS    37.78  64.1 P        14:16:46.0    -4.2                           T__                        ci            10526837
FKS    37.78  64.1 PP       14:17:53.0   -23.5                           ___                        _e            10526838
ONA    38.12  65.4 P        14:16:49.0    -4.1                           T__                        __            10526842
ONA    38.12  65.4 S        14:23:01.0    15.4                           ___                        __            10526843
SEN    38.13  63.2 P        14:16:49.0    -4.2                           T__                        _i            10526849
SEN    38.13  63.2 PnPn     14:18:28.0     6.2                           T__                        __            10526851
SEN    38.13  63.2 S        14:22:57.0    11.3                           ___                        __            10526850
