DATA_TYPE BULLETIN IMS1.0:short
ISC Bulletin
Event   733389 Kashmir-Xizang border region

   Date       Time        Err   RMS Latitude Longitude  Smaj  Smin  Az Depth   Err Ndef Nsta Gap  mdist  Mdist Qual   Author      OrigID
1975/01/19 08:01:59.52               32.3750   78.4900                   2.6                                          CENT      02323601
1975/01/19 08:01:59.83        1.550  32.3680   78.4900   7.0   4.0  24   5.0f       354  302                       ke EHB        9228038
1975/01/19 08:02:00.60        1.570  32.3620   78.4780   6.7   4.0  24  10.0f       390  337                   m i ke ISC-EHB   12126962
 (#PARAM DEPTH_QUALITY=L1)
1975/01/19 08:02:01                  32.3851   78.4955                                                                EVBIB     01079947
 (#MOMTENS sc    M0 fCLVD    MRR    MTT    MPP    MRT    MTP    MPR NST1 NST2 Author   )
 (#             eM0 eCLVD    eRR    eTT    ePP    eRT    eTP    ePR NCO1 NCO2 Duration )
 (#        19 2.300                                                           EVBIB    )
 (#                                                                                    )
 (This hypocenter has been inserted to accommodate the Mw from the literature)
 (Zheng, S-H. and Suzuki, Z. (1993). Moment tensors of earthquakes in and near the Tibetan Plateau and their scaling law, Acta seism. sin.,)
 ( 6, 2, 365-377, DOI:10.1007/BF02650949)
1975/01/19 08:02:02.50        1.600  32.4550   78.4300                  33.0        180                            de NEIS       1617996
1975/01/19 08:02:03.00               32.6000   78.6000                  25.0                                       uk MOS        1617997
1975/01/19 08:02:06.00               31.9000   79.2000                                                             uk PEK        1617998
1975/01/19 08:02:01.06   0.27 2.689  32.3511   78.4870 4.539 3.553  31  12.9  1.35  580  391  18   3.82 156.18 m i de ISC        1618000
 (#PRIME)
 (THE EARTHQUAKE WAS WIDELY FELT IN NORTHERN INDIA AND NORTHERN PAKISTAN, INCLUDING LAHORE, RAWALPINDI, ABBOTTABAD, CHANDIGARH CITY, SIMLA,)
 ( SRINAGAR, JULLUNDA R, PUNJAB, HARYANA. THE HINDUSTAN_TIBET ROAD BETWEEN KARCHOL AND KORAT WAS DAMAGED A T SEVERAL PLACES. THIRTYSIX PEOPLE)
 ( DIED IN THE BORDER DISTRICTS OF KINNAUR AND OTHER  AREAS IN HIMACHAL PRADESH. HEAVY DAMAGE TO HOUSES AND GOVERNMENT PROPERTY WAS REPOR TED)
 ( FROM A NUMBER OF PLACES IN THE KINNAUR AND LAHOUL_SPITI DISTRICTS.)


Magnitude  Err Nsta Author      OrigID
UK     6.8          PAS       02323601
UK     7.1          B&D       02323601
MW     6.8 0.2      EVBIB     01079947
mb     6.2       43 NEIS       1617996
MS     6.8        7 NEIS       1617996
MB     6.5          MOS        1617997
MS     7.0          MOS        1617997
MS     7.1          PEK        1617998
mb     6.4 0.3   49 ISC        1618000
MS     7.0 0.1   30 ISC        1618000

Sta     Dist  EvAz Phase        Time      TRes  Azim AzRes   Slow   SRes Def   SNR       Amp   Per Qual Magnitude    ArrID
NDI     3.82 197.0 Pn       08:03:00.0     0.4                           T__                        _e            23698890
NDI     3.82 197.0 Sb       08:03:54.0    -0.4                           T__                        _e            23698891
KHO     7.67 313.8 Pn       08:03:55.0     2.3                           T__                        _e            23698892
KHO     7.67 313.8 Sn       08:05:19.0    -0.6                           T__                        _e            23698893
KUL     9.04 310.3 Pn       08:04:13.0     1.7                           T__                        __            23698894
NRN     9.28 348.3 Pn       08:04:15.0     0.1                           T__                        d_            23698895
NRN     9.28 348.3 Sn       08:05:59.0    -0.3                           T__                        _i            23698896
NRN     9.28 348.3 Pn       08:04:15.0     0.1                           T__                        _i            17619191
NRN     9.28 348.3 PM       08:04:24.0                                   ___          3300.0  4.00  __            17619193
NRN     9.28 348.3 Sn       08:05:59.0    -0.3                           T__                        _i            17619192
NRN     9.28 348.3          08:06:16.0                                   ___         65000.0  4.00  __            17619195
NRN     9.28 348.3 M        08:07:00.0                                   ___        260000.0 14.00  __            17619197
GAR     9.39 317.2 Pn       08:04:16.0    -0.2                           T__                        __            23698897
ANR     9.72 331.3 Pn       08:04:22.0     1.3                           T__                        __            23698898
ANR     9.72 331.3 Pn       08:04:22.3     1.6                           T__                        _i            17619198
ANR     9.72 331.3 PM       08:04:22.3                                   ___          9000.0  8.00  __            17619200
ANR     9.72 331.3 PM       08:04:22.3                                   ___          5000.0  8.00  __            17619201
ANR     9.72 331.3 PM       08:04:22.3                                   ___         12000.0  8.00  __            17619202
ANR     9.72 331.3 PM       08:04:22.3                                   ___       1100000.0  5.00  __            17619204
DSH    10.05 310.7 Pn       08:04:28.0     2.8                           T__                        c_            23698899
DSH    10.05 310.7 Sn       08:06:24.0     6.1                           T__                        _i            23698900
DSH    10.05 310.7 Pn       08:04:28.0     2.8                           T__                        _i            17619208
DSH    10.05 310.7 Sn       08:06:24.0     6.1                           T__                        _i            17619209
DSH    10.05 310.7 M        08:06:24.0                                   ___        100000.0  5.00  __            17619210
DSH    10.05 310.7 M        08:06:24.0                                   ___        100000.0  5.00  __            17619211
PRZ    10.12 359.6 Pn       08:04:28.0     1.8                           T__                        _e            23698901
PRZ    10.12 359.6 Pn       08:04:28.0     1.8                           T__                        _e            17619205
PRZ    10.12 359.6 PM       08:04:46.0                                   ___          1700.0  1.50  __            17619207
FRU    10.90 344.8 Pn       08:04:38.0     1.2                           T__                        d_            23698902
FRU    10.90 344.8 Pn       08:04:38.0     1.2                           T__                        _i            17619212
FRU    10.90 344.8 M        08:08:12.0                                   ___        450000.0  9.00  __            17619214
AAB    10.91 355.1 Pn       08:04:37.0     0.0                           T__                        d_            23698903
TAS    11.60 323.2 Pn       08:04:44.0    -2.3                           T__                        d_            23698904
TAS    11.60 323.2 Sn       08:06:56.0     0.4                           T__                        _i            23698905
TAS    11.60 323.2 Pn       08:04:44.0    -2.3                           T__                        _i            17619215
TAS    11.60 323.2 PM       08:04:51.5                                   ___          9000.0  8.00  __            17619217
TAS    11.60 323.2 PM       08:04:51.5                                   ___          8500.0  8.00  __            17619218
TAS    11.60 323.2 PM       08:04:51.5                                   ___         11000.0  8.00  __            17619219
TAS    11.60 323.2 Sn       08:06:56.0     0.4                           T__                        _i            17619216
TAS    11.60 323.2          08:06:56.0                                   ___         35000.0  4.00  __            17619221
TAS    11.60 323.2 M        08:09:00.0                                   ___       1700000.0 10.00  __            17619223
SAM    11.84 311.2 Pn       08:04:48.0    -1.7                           T__                        de            23698906
SAM    11.84 311.2 Sn       08:06:48.0   -13.8                           ___                        _e            23698907
SHL    13.53 116.6 Pn       08:05:10.6    -2.3                           T__                        _i            23698908
SHL    13.53 116.6 Sn       08:07:50.6     7.3                           T__                        _i            23698909
HYB    14.87 179.8 Pn       08:05:27.0    -4.2                           T__                        _e            23698910
HYB    14.87 179.8 Sn       08:08:03.3   -12.5                           ___                        _e            23698911
MSH    16.10 289.4 Pn       08:05:47.2    -0.0                           T__                        d_            23698912
MSH    16.10 289.4          08:05:48.4                                   ___                        _i            23698913
MSH    16.10 289.4 Sn       08:08:40.0    -5.7                           T__                        _i            23698914
ASH    17.38 294.3 P        08:06:05.4     0.8                           T__                        c_            23698915
ASH    17.38 294.3 P        08:06:06.0     1.4                           T__                        __            17619224
ASH    17.38 294.3 M        08:20:30.0                                   ___        177000.0  7.00  __            17619226
ASH    17.38 294.3 M        08:20:30.0                                   ___        175000.0  7.00  __            17619227
SEM    18.09   3.6 Pn       08:06:10.3    -1.9                           T__                        __            23698916
GBA    18.69 183.2 P        08:06:16.0    -3.2                           T__                        c_            23698917
KAT    19.21 296.5 Pn       08:06:25.0    -0.7                           T__                        c_            23698918
KAT    19.21 296.5 Pn       08:06:25.0    -0.7                           T__                        _i            17619228
KAT    19.21 296.5 PM       08:06:31.0                                   ___         34000.0  7.00  __            17619230
KAT    19.21 296.5 Sn       08:09:57.0    -3.9                           T__                        _e            17619229
KOD    22.03 182.7 P        08:06:56.6     0.9                           T__                        d_ mb     4.8 23698919
KOD    22.03 182.7 sP       08:07:28.0    24.7                           ___                        d_            23698920
KOD    22.03 182.7 PPP      08:07:40.0                                   ___                        __            23698921
KOD    22.03 182.7 PcP      08:10:47.0    -6.9                           T__                        __            23698922
KOD    22.03 182.7 Sn       08:11:06.0    -3.4                           ___                        _i            23698923
SHI    22.41 270.0 P        08:07:01.0     1.3                           T__                        _e            23698924
NVS    22.73   7.1 P        08:07:00.0    -2.6                           T__                        _i            17619231
NVS    22.73   7.1 PM       08:07:13.3                                   ___          2800.0  2.00  __            17619233
BAK    24.36 297.3 P        08:07:24.0     5.2                           T__                        __            23698925
BAK    24.36 297.3 S        08:11:38.0     0.2                           T__                        _i            23698926
MOY    25.36  33.8 P        08:07:30.0     2.2                           T__                        d_            23698927
MOY    25.36  33.8 P        08:07:29.6     1.8                           T__                        _i            17619234
MOY    25.36  33.8 PM       08:07:44.1                                   ___          5400.0  2.20  __            17619236
ZAK    25.71  38.2 P        08:07:31.7     0.7                           T__                        d_            23698928
ZAK    25.71  38.2 S        08:11:54.0    -5.4                           T__                        _e            23698929
ZAK    25.71  38.2 P        08:07:31.7     0.7                           T__                        _i            17619237
ZAK    25.71  38.2 PM       08:07:43.7                                   ___         33000.0  9.00  __            17619241
ZAK    25.71  38.2 PM       08:07:48.2                                   ___          7300.0  2.80  __            17619239
ZAK    25.71  38.2 S        08:11:54.0    -5.4                           T__                        _e            17619240
KER    26.21 283.0 P        08:07:37.5     1.7                           T__                        de            23698930
KER    26.21 283.0 S        08:12:08.0     0.2                           T__                        _e            23698931
MAK    26.58 302.4 P        08:07:41.0     2.2                           T__                        di            23698932
TAB    26.80 291.3 P        08:07:42.0     0.9                           T__                        di            23698933
GRS    26.90 294.5 P        08:07:45.0     3.1                           T__                        d_            23698934
GRS    26.90 294.5 S        08:12:23.0     4.5                           T__                        _i            23698935
GRS    26.90 294.5 sS       08:12:36.0     8.4                           ___                        _i            23698936
GRS    26.90 294.5 P        08:07:45.0     3.1                           T__                        _i            17619242
GRS    26.90 294.5 PM       08:07:50.0                                   ___          1100.0  8.00  __            17619244
GRS    26.90 294.5 PM       08:07:50.0                                   ___          4800.0  8.00  __            17619245
GRS    26.90 294.5 PM       08:07:50.0                                   ___         11000.0  8.00  __            17619246
GRS    26.90 294.5 S        08:12:23.0     4.5                           T__                        _i            17619243
GRS    26.90 294.5          08:12:40.0                                   ___         18000.0  9.00  __            17619248
GRS    26.90 294.5          08:12:40.0                                   ___         25000.0  9.00  __            17619249
GRS    26.90 294.5 M        08:21:48.0                                   ___         47000.0 15.00  __ MS     6.2 17619251
GRS    26.90 294.5 M        08:21:48.0                                   ___         97000.0 15.00  __ MS     6.5 17619252
GRS    26.90 294.5 M        08:21:48.0                                   ___         42000.0 15.00  __ MS     6.1 17619253
KRV    27.04 296.9 P        08:07:40.0    -3.1                           T__                        __            23698937
KRV    27.04 296.9 S        08:12:20.0    -0.5                           T__                        _i            23698938
IRK    27.30  35.7 P        08:07:46.3     1.0                           T__                        __            17619254
IRK    27.30  35.7 PM       08:07:49.3                                   ___           120.0  1.50  __            17619256
IRK    27.30  35.7 PM       08:07:49.3                                   ___           200.0  1.50  __            17619257
IRK    27.30  35.7 PM       08:07:49.3                                   ___           330.0  1.50  __            17619258
IRK    27.30  35.7 PM       08:07:55.5                                   ___          6800.0 11.00  __            17619260
IRK    27.30  35.7 PM       08:07:55.5                                   ___          9700.0 11.00  __            17619261
IRK    27.30  35.7 PM       08:07:55.5                                   ___         16000.0 11.00  __            17619262
IRK    27.30  35.7 PM       08:07:55.5                                   ___          8700.0 14.00  __            17619264
IRK    27.30  35.7 PM       08:07:55.5                                   ___         10000.0 14.00  __            17619265
IRK    27.30  35.7 PM       08:07:55.5                                   ___         26000.0 14.00  __            17619266
IRK    27.30  35.7 S        08:12:28.3     3.9                           T__                        __            17619263
IRK    27.30  35.7 AMS      08:12:37.0                                   ___         42000.0 15.00  __            17619268
IRK    27.30  35.7 AMS      08:12:37.0                                   ___         37000.0 15.00  __            17619269
IRK    27.30  35.7 AMS      08:12:51.0                                   ___        166000.0 40.00  __            17619271
IRK    27.30  35.7 M        08:18:12.0                                   ___        123000.0 20.00  __            17619273
IRK    27.30  35.7 M        08:18:12.0                                   ___         89000.0 20.00  __ MS     6.3 17619274
IRK    27.30  35.7 M        08:18:36.0                                   ___        212000.0 20.00  __ MS     6.7 17619276
IRK    27.30  35.7 M        08:18:36.0                                   ___         58000.0 20.00  __            17619277
IRK    27.30  35.7 M        08:18:36.0                                   ___        197000.0 20.00  __ MS     6.7 17619278
SVE    27.41 338.5 P        08:07:47.0     0.9                           T__                        _i            17619279
SVE    27.41 338.5 PM       08:07:54.0                                   ___         10000.0  9.00  __            17619281
SVE    27.41 338.5 PM       08:07:54.0                                   ___          8000.0  9.00  __            17619282
SVE    27.41 338.5 PM       08:07:54.0                                   ___         17000.0  9.00  __            17619283
SVE    27.41 338.5 PM       08:07:57.0                                   ___         10000.0 10.00  __            17619285
SVE    27.41 338.5 PM       08:07:57.0                                   ___          8000.0 10.00  __            17619286
SVE    27.41 338.5 S        08:12:28.0     2.1                           T__                        _i            17619284
SVE    27.41 338.5 M        08:17:12.0                                   ___          8000.0 20.00  __ MS     5.3 17619288
SVE    27.41 338.5 M        08:17:12.0                                   ___         13000.0 20.00  __ MS     5.5 17619289
ARU    27.77 336.0 P        08:07:48.0    -1.3                           T__                        _e            17619290
ARU    27.77 336.0 PM       08:07:58.0                                   ___         17000.0 11.00  __            17619292
ARU    27.77 336.0 S        08:12:30.0    -1.5                           T__                        _e            17619293
ARU    27.77 336.0 M        08:19:54.0                                   ___        228000.0 20.00  __ MS     6.8 17619294
ARU    27.77 336.0 M        08:19:54.0                                   ___        312000.0 20.00  __ MS     6.9 17619295
ARU    27.77 336.0 M        08:19:54.0                                   ___        396000.0 20.00  __ MS     7.0 17619296
TIF    28.32 298.9 P        08:07:57.0     2.5                           T__                        __            23698939
BKR    29.28 298.7 P        08:08:05.0     1.7                           T__                        d_            23698940
BKR    29.28 298.7 S        08:13:01.0     4.8                           T__                        _i            23698941
BKR    29.28 298.7 P        08:08:05.0     1.7                           T__                        _i            17619297
BKR    29.28 298.7 PM       08:08:05.0                                   ___         15000.0  4.00  __            17619299
