DATA_TYPE BULLETIN IMS1.0:short
ISC Bulletin
Event   317038 Northern India

Date       Time        Err   RMS Latitude Longitude  Smaj  Smin  Az Depth   Err Ndef Nsta Gap  mdist  Mdist Qual   Author      OrigID
1991/10/19 21:23:14.30        1.190  30.7800   78.7740                  10.3             525                       de NEIC        688018
1991/10/19 21:23:14.30               30.7800   78.7740                  19.0                                          NEIC       5158313
1991/10/19 21:23:15                  30.7800   78.7740                  10.0                                          COSMOS     6131346
1991/10/19 21:23:15.30               30.8100   78.9000                  16.0                                       uk BJI         688019
1991/10/19 21:23:15.52               30.7310   78.7810                   8.1                                          CENT      02328058
1991/10/19 21:23:15.80        1.080  30.7370   78.7780   3.2   1.8  25  10.4   0.7  848  728                   m i de ISC-EHB   12162020
1991/10/19 21:23:15.82               30.7220   78.7740                  10.0                                          EUROP     00450541
1991/10/19 21:23:15.83        1.070  30.7250   78.7780   3.4   1.9  25  10.0        745  673                       ke EHB       11287276
1991/10/19 21:23:16.50               30.7500   78.8600                  12.0                                       fe NDI         688020
1991/10/19 21:23:17.40               30.8100   78.8500                  33.0                                       fe MOS         688021
1991/10/19 21:23:21.50   0.20        30.2200   78.2400                  15.0         95   24                          GCMT      05194700
1991/10/19 21:23:16.56   0.21 2.586  30.7560   78.7907 2.985 2.538  25  16.1  1.04 1335  922  10   0.77 154.83 m i de ISC         688024
 

Magnitude  Err Nsta Author      OrigID
mb     6.5       99 NEIC        688018
MSZ    7.0       28 NEIC        688018
Ms     7.0          BRK;NEIC    688018
MS     7.0          BRK;NEIC    688018
mw     6.8          NEIC       5158313
mb     6.5          BJI         688019
Ms     7.0          BJI         688019
Ms     7.0          BRK       02328058
mb     6.4          EUROP     00450541
mb     6.6          NDI         688020
Mb     6.8       31 MOS         688021
Ms     6.9       25 MOS         688021
MW     6.8       24 GCMT      05194700
mb     6.6 0.2  153 ISC         688024
MS     6.8 0.2   83 ISC         688024

Sta     Dist  EvAz Phase        Time      TRes  Azim AzRes   Slow   SRes Def   SNR       Amp   Per Qual Magnitude    ArrID
DDI     0.77 235.9 Pg       21:23:29.5    -2.1                           T__                        di             9517360
DDI     0.77 235.9 Sg       21:23:39.0    -2.7                           T__                        _i             9517361
PTH     1.72 133.9 Pb       21:23:47.0    -1.0                           T__                        _e             9517362
PTH     1.72 133.9 Sg       21:24:11.0    -1.1                           T__                        _e             9517363
BHK     2.14 288.5 Pb       21:23:53.8    -1.2                           T__                        _e             9517364
BHK     2.14 288.5 Pg       21:23:59.6     1.9                           T__                        _i             9517365
BHK     2.14 288.5 Sb       21:24:23.0     1.7                           T__                        _i             9517366
NDI     2.48 213.9 Pb       21:23:59.0    -1.7                           T__                        __             9517367
NDI     2.48 213.9 Sb       21:24:31.5     0.5                           T__                        _i             9517368
NDI     2.48 213.9 Pb       21:23:59.0    -1.7                           T__                        __            68592924
NDI     2.48 213.9 Sb       21:24:31.5     0.5                           T__                        _i            68592925
SARP    5.36 284.1 Pn       21:24:37.5     1.6                           T__                        c_             9517369
CHCP    5.51 303.1 Pn       21:24:40.9     3.0                           T__                        d_             9517370
AJM     5.61 221.6 Pb       21:24:48.1    -6.0                           ___                        di             9517371
GKN     5.79 116.8 Pn       21:24:43.4     1.4                           T__                        __             9517372
THW     6.34 290.5 Pn       21:24:51.0     1.7                           T__                        d_             9517373
DMN     6.35 118.0 Pn       21:24:50.4     0.7                           T__                        __             9517374
KKN     6.39 115.9 Pn       21:24:51.2     0.9                           T__                        __             9517375
CEP     6.58 299.5 Pn       21:24:54.1     1.3                           T__                        c_             9517376
CEP     6.58 299.5 Sn       21:26:06.0    -1.6                           T__                        __             9517377
VAR     6.59 144.5 Pn       21:24:51.6    -1.3                           T__                        di             9517378
VAR     6.59 144.5 Pb       21:25:04.0    -6.9                           ___                        _e             9517379
VAR     6.59 144.5 Sn       21:26:08.0     0.3                           T__                        _e             9517380
PKI     6.60 117.1 Pn       21:24:54.0     0.8                           T__                        __             9517381
GUN     6.81 112.9 Pn       21:24:57.4     1.3                           T__                        __             9517382
SBDP    6.99 284.8 Pn       21:25:00.5     2.1                           T__                        d_             9517383
SBDP    6.99 284.8 Sn       21:26:17.0    -0.6                           T__                        __             9517384
DRP     7.42 279.8 Pn       21:25:06.7     2.5                           T__                        __             9517385
KHO     9.01 320.1 Pn       21:25:26.7     0.5                           T__                        c_             9517389
KHO     9.01 320.1 Sn       21:27:03.5    -4.0                           T__                        _i             9517390
KHO     9.01 320.1 Pn       21:25:26.7     0.5                           T__                        c_            68592926
KHO     9.01 320.1 pmax     21:25:41.0                                   ___         25000.0  8.00  __            68592928
KHO     9.01 320.1 pmax     21:25:41.0                                   ___         40000.0  8.00  __            68592929
KHO     9.01 320.1 pmax     21:25:41.0                                   ___         42000.0  8.00  __            68592930
KHO     9.01 320.1 Sn       21:27:03.5    -4.0                           T__                        _i            68592931
KHO     9.01 320.1 L        21:28:51.0                                   ___        130000.0  8.00  __            68592933
KSH     9.04 346.0 Pn       21:25:28.0     1.5                           T__                        ci             9517386
KSH     9.04 346.0 Sn       21:27:10.0     2.0                           T__                        __             9517387
KSH     9.04 346.0 A                                                     ___        467000.0 10.00  __             9517388
BLPI    9.23 158.5 Pn       21:25:25.6    -3.4                           T__                        di             9517391
AKL    10.14 189.5 Pn       21:25:40.5    -1.0                           T__                        di             9517396
QUE    10.23 269.8 Pn       21:25:44.0     1.0                           T__                        d_             9517392
QUE    10.23 269.8 Sn       21:27:48.0    10.5                           ___                        _e             9517393
QUE    10.23 269.8 Pn       21:25:44.0     1.0                           T__                        d_            68592934
QUE    10.23 269.8 Sn       21:27:48.0    10.5                           ___                        _e            68592935
KUL    10.32 316.2 Pn       21:25:43.7    -0.3                           T__                        c_             9517394
KUL    10.32 316.2 Sn       21:27:39.2    -0.1                           T__                        _e             9517395
KUL    10.32 316.2 Pn       21:25:43.7    -0.3                           T__                        c_            68592936
KUL    10.32 316.2 pmax     21:25:52.7                                   ___         10500.0  3.80  __            68592938
KUL    10.32 316.2 Sn       21:27:39.2    -0.1                           T__                        _e            68592939
KUL    10.32 316.2 L        21:29:39.7                                   ___        474800.0  9.00  __            68592941
LSA    10.74  92.5 Pn       21:25:50.6     0.4                           T__          1000.0  1.20  _i             9517397
LSA    10.74  92.5 pP       21:25:59.8                                   ___                        __             9517398
LSA    10.74  92.5 A                                                     ___        583500.0 15.00  __             9517399
GAR    10.77 322.1 Pn       21:25:48.5    -1.7                           T__                        __             9517400
NRN    10.89 348.8 Pn       21:25:53.6     1.6                           T__                        c_             9517401
NRN    10.89 348.8 Sn       21:27:57.0     3.3                           T__                        _i             9517402
NRN    10.89 348.8 Pn       21:25:53.6     1.6                           T__                        c_            68592943
NRN    10.89 348.8 Sn       21:27:57.0     3.3                           T__                        _i            68592944
DSH    11.33 316.1 Pn       21:25:56.0    -1.9                           T__                        _e             9517403
DSH    11.33 316.1 Pn       21:25:56.5    -1.4                           T__                        __            68592945
DSH    11.33 316.1 pmax     21:26:15.0                                   ___             4.0  1.20  __            68592947
DSH    11.33 316.1 L        21:30:08.0                                   ___         54000.0  8.00  __            68592949
TURI   11.43 114.2 Pn       21:25:55.0    -4.2                           T__                        _e             9517404
TURI   11.43 114.2 Sn       21:27:55.0   -11.5                           ___                        _e             9517405
CAL    11.82 131.6 Pn       21:26:04.0    -0.5                           T__                        _i             9517406
CAL    11.82 131.6 Sn       21:28:13.0    -3.0                           T__                        _i             9517407
FRU    12.51 345.7 Pn       21:26:15.0     1.1                           T__                        c_             9517408
FRU    12.51 345.7 Pn       21:26:15.0     1.1                           T__                        c_            68592950
FRU    12.51 345.7 pmax     21:26:24.0                                   ___         59000.0 16.00  __            68592952
FRU    12.51 345.7 pmax     21:26:24.0                                   ___         21400.0 16.00  __            68592953
FRU    12.51 345.7 pmax     21:26:24.0                                   ___         65000.0 16.00  __            68592954
FRU    12.51 345.7 pmax     21:26:27.0                                   ___         71000.0  8.00  __            68592956
FRU    12.51 345.7 pmax     21:26:27.0                                   ___         70500.0 11.00  __            68592958
FRU    12.51 345.7 pmax     21:26:27.0                                   ___         18500.0 11.00  __            68592959
FRU    12.51 345.7 L        21:32:10.0                                   ___        485000.0 10.00  __            68592961
FRU    12.51 345.7 L        21:32:10.0                                   ___        405000.0 10.00  __            68592962
FRU    12.51 345.7 L        21:32:10.0                                   ___        360000.0 10.00  __            68592963
TLG    12.51 354.7 Pn       21:26:15.5     1.5                           T__                        c_             9517409
TLG    12.51 354.7 Sn       21:28:34.0     1.0                           T__                        _i             9517410
AAB    12.52 354.7 Pn       21:26:15.5     1.4                           T__                        __            68592964
AAB    12.52 354.7 pmax     21:26:21.0                                   ___        100000.0 10.00  __            68592966
AAB    12.52 354.7 pmax     21:26:21.0                                   ___         17300.0  8.00  __            68592968
AAB    12.52 354.7 pmax     21:26:22.0                                   ___          4580.0  2.80  __            68592970
AAB    12.52 354.7 Sn       21:28:34.0     0.8                           T__                        _i            68592971
AAB    12.52 354.7 L        21:31:32.0                                   ___       1580000.0 14.00  __            68592973
AAA    12.52 353.7 Pn       21:26:16.0     1.9                           T__                        __             9517411
AAA    12.52 353.7 Sn       21:28:36.0     2.8                           T__                        _e             9517412
AAA    12.52 353.7 Pn       21:26:16.0     1.9                           T__                        __            68592974
AAA    12.52 353.7 Sn       21:28:36.0     2.8                           T__                        _e            68592975
SHL    12.65 110.9 Pn       21:26:17.5     1.4                           T__                        ci             9517413
SHL    12.65 110.9 Sn       21:28:40.0     3.2                           T__                        _i             9517414
SHL    12.65 110.9 Pn       21:26:12.6    -3.5                           T__                        __            68592976
TZR    12.96 105.0 Pn       21:26:17.0    -3.1                           T__                        __             9517415
POO    12.97 201.4 Pn       21:26:21.5     1.1                           T__                        _i             9517416
POO    12.97 201.4 P        21:26:31.0     0.1                           T__                        di             9517417
POO    12.97 201.4 Sn       21:28:47.0     2.6                           T__                        _i             9517418
POO    12.97 201.4 SnSn     21:29:02.0     5.1                           T__                        _i             9517419
POO    12.97 201.4 Pn       21:26:17.2    -3.2                           T__                        __            68593011
BOM    12.99 206.0 Pn       21:26:21.5     1.0                           T__                        _e             9517420
BOM    12.99 206.0 Sn       21:28:47.0     2.2                           T__                        _i             9517421
TAS    13.04 326.6 Pn       21:26:19.8    -1.3                           T__                        c_             9517422
TAS    13.04 326.6 Sn       21:28:38.0    -7.8                           T__                        _i             9517423
TAS    13.04 326.6 Pn       21:26:19.8    -1.3                           T__                        c_            68592977
TAS    13.04 326.6 pmax     21:26:27.5                                   ___          1300.0  1.20  __            68592979
TAS    13.04 326.6 pmax     21:26:27.5                                   ___          1300.0  1.20  __            68592980
TAS    13.04 326.6 pmax     21:26:27.5                                   ___          4700.0  1.20  __            68592981
TAS    13.04 326.6 pmax     21:26:27.5                                   ___         16000.0  4.50  __            68592983
TAS    13.04 326.6 pmax     21:26:27.5                                   ___         32000.0  4.50  __            68592984
TAS    13.04 326.6 pmax     21:26:27.5                                   ___         24000.0 14.00  __            68592986
TAS    13.04 326.6 pmax     21:26:27.5                                   ___         32000.0 14.00  __            68592987
TAS    13.04 326.6 Sn       21:28:38.0    -7.8                           T__                        _i            68592988
TAS    13.04 326.6 smax     21:28:43.5                                   ___          1600.0  1.80  __            68592990
TAS    13.04 326.6 smax     21:28:43.5                                   ___         19300.0  1.10  __            68592992
TAS    13.04 326.6 smax     21:28:43.5                                   ___           800.0  2.00  __            68592994
TAS    13.04 326.6 smax     21:28:43.5                                   ___         60000.0  5.00  __            68592996
TAS    13.04 326.6 smax     21:28:43.5                                   ___         18000.0  2.00  __            68592998
TAS    13.04 326.6 smax     21:28:43.5                                   ___         52000.0 14.00  __            68593000
TAS    13.04 326.6 smax     21:28:43.5                                   ___         67000.0 13.00  __            68593002
TAS    13.04 326.6 smax     21:28:43.5                                   ___         21000.0 10.00  __            68593004
TAS    13.04 326.6 L        21:31:25.0                                   ___       1520000.0 10.00  __            68593006
TAS    13.04 326.6 L        21:31:25.0                                   ___        790000.0 10.00  __            68593007
TAS    13.04 326.6 L        21:31:25.0                                   ___        880000.0 10.00  __            68593008
TAS    13.04 326.6 L        21:31:25.0                                   ___       1500000.0 12.00  __            68593010
SAM    13.11 315.9 Pn       21:26:20.0    -2.2                           T__                        c_             9517424
SAM    13.11 315.9 Sn       21:28:43.0    -4.7                           T__                        _i             9517425
SAM    13.11 315.9 Pn       21:26:20.0    -2.2                           T__                        __            68593012
SAM    13.11 315.9 pmax     21:26:30.0                                   ___         28000.0  9.00  __            68593014
SAM    13.11 315.9 pmax     21:26:30.0                                   ___         24000.0  4.00  __            68593016
SAM    13.11 315.9 pmax     21:26:30.0                                   ___         31500.0  6.00  __            68593018
SAM    13.11 315.9 Sn       21:28:43.0    -4.7                           T__                        _i            68593019
SAM    13.11 315.9 smax     21:28:48.0                                   ___        125500.0  9.00  __            68593021
SAM    13.11 315.9 L        21:30:36.8                                   ___       1014000.0 10.00  __            68593023
HYB    13.28 181.0 Pn       21:26:20.3    -4.3                           T__                        d_             9517426
HYB    13.28 181.0 Sn       21:28:40.0   -12.0                           ___                        _i             9517427
HYB    13.28 181.0          21:29:16.0                                   ___                        _e             9517428
HYB    13.28 181.0 P'P'     22:02:38.0                                   ___                        _e             9517429
VIS    13.62 161.3 Pn       21:26:24.0    -5.1                           ___                        _i             9517430
KAD    14.03 198.5 Pn       21:26:31.0    -3.8                           T__                        di             9517431
KAD    14.03 198.5 Pn       21:26:31.0    -3.8                           T__                        di             9517434
KAD    14.03 198.5 P        21:26:41.0    -1.6                           T__                        de             9517432
